{
  "type": "FeatureCollection",
  "features": [
    {
      "type": "Feature",
      "properties": {
        "norad_id": 31192,
        "name": "FENGYUN 1C DEB",
        "group": "fengyun-1c-debris",
        "lat": -54.94274797531903,
        "lon": -3.1412326065171983,
        "alt_km": 911.8829465514427,
        "timestamp": "2025-12-27T05:29:39.483877+00:00",
        "meta_object_name": "FENGYUN 1C DEB",
        "meta_object_id": "1999-025BJW",
        "meta_epoch": "2025-12-25T09:49:08.380128",
        "meta_mean_motion": 14.20984359,
        "meta_eccentricity": 0.0259636,
        "meta_inclination": 98.5541,
        "meta_ra_of_asc_node": 342.7085,
        "meta_arg_of_pericenter": 67.1108,
        "meta_mean_anomaly": 295.7254,
        "meta_ephemeris_type": 0,
        "meta_classification_type": "U",
        "meta_norad_cat_id": 31192,
        "meta_element_set_no": 999,
        "meta_rev_at_epoch": 96923,
        "meta_bstar": 0.00037524,
        "meta_mean_motion_dot": 1.098e-05,
        "meta_mean_motion_ddot": 0,
        "tle_line1": "1 31192U 99025BJW 25359.40912477  .00001098  00000+0  37524-3 0  9990",
        "tle_line2": "2 31192  98.5541 342.7085 0259636  67.1108 295.7254 14.20984359969231"
      },
      "geometry": {
        "type": "Point",
        "coordinates": [
          -3.1412326065171983,
          -54.94274797531903
        ]
      }
    },
    {
      "type": "Feature",
      "properties": {
        "norad_id": 31194,
        "name": "FENGYUN 1C DEB",
        "group": "fengyun-1c-debris",
        "lat": -28.730183530239476,
        "lon": -104.14667442470883,
        "alt_km": 778.371108460794,
        "timestamp": "2025-12-27T05:29:39.483886+00:00",
        "meta_object_name": "FENGYUN 1C DEB",
        "meta_object_id": "1999-025BJY",
        "meta_epoch": "2025-12-26T16:15:31.311936",
        "meta_mean_motion": 14.36725859,
        "meta_eccentricity": 0.0056619,
        "meta_inclination": 98.9636,
        "meta_ra_of_asc_node": 250.316,
        "meta_arg_of_pericenter": 237.7081,
        "meta_mean_anomaly": 121.8612,
        "meta_ephemeris_type": 0,
        "meta_classification_type": "U",
        "meta_norad_cat_id": 31194,
        "meta_element_set_no": 999,
        "meta_rev_at_epoch": 97327,
        "meta_bstar": 0.00096651733,
        "meta_mean_motion_dot": 2.855e-05,
        "meta_mean_motion_ddot": 0,
        "tle_line1": "1 31194U 99025BJY 25360.67744574  .00002855  00000+0  96652-3 0  9993",
        "tle_line2": "2 31194  98.9636 250.3160 0056619 237.7081 121.8612 14.36725859973272"
      },
      "geometry": {
        "type": "Point",
        "coordinates": [
          -104.14667442470883,
          -28.730183530239476
        ]
      }
    },
    {
      "type": "Feature",
      "properties": {
        "norad_id": 31195,
        "name": "FENGYUN 1C DEB",
        "group": "fengyun-1c-debris",
        "lat": 60.6452106549481,
        "lon": 18.209495811498858,
        "alt_km": 833.2795904541081,
        "timestamp": "2025-12-27T05:29:39.483896+00:00",
        "meta_object_name": "FENGYUN 1C DEB",
        "meta_object_id": "1999-025BJZ",
        "meta_epoch": "2025-12-22T07:30:58.600800",
        "meta_mean_motion": 14.07984939,
        "meta_eccentricity": 0.01723215,
        "meta_inclination": 98.778,
        "meta_ra_of_asc_node": 29.3728,
        "meta_arg_of_pericenter": 154.2351,
        "meta_mean_anomaly": 206.7529,
        "meta_ephemeris_type": 0,
        "meta_classification_type": "U",
        "meta_norad_cat_id": 31195,
        "meta_element_set_no": 999,
        "meta_rev_at_epoch": 96233,
        "meta_bstar": 0.00023249282,
        "meta_mean_motion_dot": 4.11e-06,
        "meta_mean_motion_ddot": 0,
        "tle_line1": "1 31195U 99025BJZ 25356.31317825  .00000411  00000+0  23249-3 0  9993",
        "tle_line2": "2 31195  98.7780  29.3728 0172321 154.2351 206.7529 14.07984939962336"
      },
      "geometry": {
        "type": "Point",
        "coordinates": [
          18.209495811498858,
          60.6452106549481
        ]
      }
    },
    {
      "type": "Feature",
      "properties": {
        "norad_id": 31196,
        "name": "FENGYUN 1C DEB",
        "group": "fengyun-1c-debris",
        "lat": -20.413773825201115,
        "lon": -169.1501024355514,
        "alt_km": 776.0089233011231,
        "timestamp": "2025-12-27T05:29:39.483906+00:00",
        "meta_object_name": "FENGYUN 1C DEB",
        "meta_object_id": "1999-025BKA",
        "meta_epoch": "2025-12-20T07:28:00.268608",
        "meta_mean_motion": 14.25476414,
        "meta_eccentricity": 0.00582224,
        "meta_inclination": 98.5261,
        "meta_ra_of_asc_node": 7.3249,
        "meta_arg_of_pericenter": 189.9584,
        "meta_mean_anomaly": 170.0447,
        "meta_ephemeris_type": 0,
        "meta_classification_type": "U",
        "meta_norad_cat_id": 31196,
        "meta_element_set_no": 999,
        "meta_rev_at_epoch": 63603,
        "meta_bstar": 0.00037193208,
        "meta_mean_motion_dot": 8.52e-06,
        "meta_mean_motion_ddot": 0,
        "tle_line1": "1 31196U 99025BKA 25354.31111422  .00000852  00000+0  37193-3 0  9999",
        "tle_line2": "2 31196  98.5261   7.3249 0058222 189.9584 170.0447 14.25476414636030"
      },
      "geometry": {
        "type": "Point",
        "coordinates": [
          -169.1501024355514,
          -20.413773825201115
        ]
      }
    },
    {
      "type": "Feature",
      "properties": {
        "norad_id": 31198,
        "name": "FENGYUN 1C DEB",
        "group": "fengyun-1c-debris",
        "lat": 41.27677255246186,
        "lon": -68.6422473017841,
        "alt_km": 1125.318401213196,
        "timestamp": "2025-12-27T05:29:39.483917+00:00",
        "meta_object_name": "FENGYUN 1C DEB",
        "meta_object_id": "1999-025BKC",
        "meta_epoch": "2025-12-25T12:39:52.961184",
        "meta_mean_motion": 13.75524314,
        "meta_eccentricity": 0.02033,
        "meta_inclination": 98.6122,
        "meta_ra_of_asc_node": 102.1748,
        "meta_arg_of_pericenter": 317.1251,
        "meta_mean_anomaly": 41.4202,
        "meta_ephemeris_type": 0,
        "meta_classification_type": "U",
        "meta_norad_cat_id": 31198,
        "meta_element_set_no": 999,
        "meta_rev_at_epoch": 62929,
        "meta_bstar": 0.00011761,
        "meta_mean_motion_dot": 9.2e-07,
        "meta_mean_motion_ddot": 0,
        "tle_line1": "1 31198U 99025BKC 25359.52769631  .00000092  00000+0  11761-3 0  9999",
        "tle_line2": "2 31198  98.6122 102.1748 0203300 317.1251  41.4202 13.75524314629299"
      },
      "geometry": {
        "type": "Point",
        "coordinates": [
          -68.6422473017841,
          41.27677255246186
        ]
      }
    },
    {
      "type": "Feature",
      "properties": {
        "norad_id": 31199,
        "name": "FENGYUN 1C DEB",
        "group": "fengyun-1c-debris",
        "lat": -76.20870314167689,
        "lon": 22.23243050099832,
        "alt_km": 845.2962205853255,
        "timestamp": "2025-12-27T05:29:39.483927+00:00",
        "meta_object_name": "FENGYUN 1C DEB",
        "meta_object_id": "1999-025BKD",
        "meta_epoch": "2025-12-26T04:37:05.155392",
        "meta_mean_motion": 14.0999666,
        "meta_eccentricity": 0.00635454,
        "meta_inclination": 98.7161,
        "meta_ra_of_asc_node": 342.5486,
        "meta_arg_of_pericenter": 221.0695,
        "meta_mean_anomaly": 200.665,
        "meta_ephemeris_type": 0,
        "meta_classification_type": "U",
        "meta_norad_cat_id": 31199,
        "meta_element_set_no": 999,
        "meta_rev_at_epoch": 96349,
        "meta_bstar": 0.00021198684,
        "meta_mean_motion_dot": 3.38e-06,
        "meta_mean_motion_ddot": 0,
        "tle_line1": "1 31199U 99025BKD 25360.19242078  .00000338  00000+0  21199-3 0  9995",
        "tle_line2": "2 31199  98.7161 342.5486 0063545 221.0695 200.6650 14.09996660963497"
      },
      "geometry": {
        "type": "Point",
        "coordinates": [
          22.23243050099832,
          -76.20870314167689
        ]
      }
    },
    {
      "type": "Feature",
      "properties": {
        "norad_id": 31201,
        "name": "FENGYUN 1C DEB",
        "group": "fengyun-1c-debris",
        "lat": 6.766643127464227,
        "lon": -138.34565404049786,
        "alt_km": 721.4991285306496,
        "timestamp": "2025-12-27T05:29:39.483937+00:00",
        "meta_object_name": "FENGYUN 1C DEB",
        "meta_object_id": "1999-025BKF",
        "meta_epoch": "2025-12-26T01:44:55.497120",
        "meta_mean_motion": 14.35238849,
        "meta_eccentricity": 0.01419984,
        "meta_inclination": 99.0016,
        "meta_ra_of_asc_node": 221.5265,
        "meta_arg_of_pericenter": 312.2817,
        "meta_mean_anomaly": 203.4602,
        "meta_ephemeris_type": 0,
        "meta_classification_type": "U",
        "meta_norad_cat_id": 31201,
        "meta_element_set_no": 999,
        "meta_rev_at_epoch": 97442,
        "meta_bstar": 0.00094841534,
        "meta_mean_motion_dot": 2.99e-05,
        "meta_mean_motion_ddot": 0,
        "tle_line1": "1 31201U 99025BKF 25360.07286455  .00002990  00000+0  94842-3 0  9994",
        "tle_line2": "2 31201  99.0016 221.5265 0141998 312.2817 203.4602 14.35238849974423"
      },
      "geometry": {
        "type": "Point",
        "coordinates": [
          -138.34565404049786,
          6.766643127464227
        ]
      }
    }
  ]
}